CZ-4B R/B               
1 28059U 03049C   18194.38966634 -.00000013  00000-0  84970-5 0  9996
2 28059  98.5178  92.1171 0051000 132.3553 358.5740 14.52531327780463
CZ-2C R/B               
1 28222U 04012C   18194.54988637  .00000131  00000-0  12085-4 0  9991
2 28222  97.5770 150.1498 0046264 284.7948 175.8389 15.09761541779659
SL-16 R/B               
1 28353U 04021B   18193.80278015  .00000191  00000-0  12507-3 0  9990
2 28353  70.9994 339.2645 0006231 310.6789  49.3791 14.14207476727374
CZ-2C R/B               
1 28480U 04046B   18193.69013212 -.00000008  00000-0  12105-4 0  9994
2 28480  98.1753 269.3891 0142648 151.4837   1.5448 14.25678297709851
ARIANE 5 R/B            
1 28499U 04049H   18193.74526956  .00000001  00000-0  75445-5 0  9996
2 28499  98.0595 283.5154 0093062  34.8321 115.5317 14.79910083731757
CZ-2D R/B               
1 28738U 05024B   18194.54781172  .00000197  00000-0  15295-4 0  9990
2 28738  97.4519 227.7329 0013770  96.4071 263.8728 15.11570584714928
SUZAKU (ASTRO-EII)      
1 28773U 05025A   18193.63814426  .00000573  00000-0  24238-4 0  9993
2 28773  31.3826 282.7529 0004758 309.3740  50.6486 15.16604037716665
ALOS (DAICHI)           
1 28931U 06002A   18194.50116747  .00000149  00000-0  37995-4 0  9996
2 28931  97.8169 206.6853 0001536 114.3602 245.7783 14.62510091664659
H-2A R/B                
1 28932U 06002B   18193.84569477  .00000165  00000-0  21417-4 0  9995
2 28932  98.2341 138.1502 0090648 111.0408 272.0120 14.91741090675935
AKARI (ASTRO-F)         
1 28939U 06005A   18193.64937004  .00001239  00000-0  38779-4 0  9990
2 28939  98.2051  81.6580 0099809 269.2572  89.7230 15.30927899672810
RESURS-DK 1             
1 29228U 06021A   18194.36346242  .00000034  00000-0  99378-5 0  9993
2 29228  69.9344 182.6928 0001737 124.0425 236.0901 15.02336888666847
GENESIS 1               
1 29252U 06029A   18194.18378452  .00000290  00000-0  24543-4 0  9991
2 29252  64.5070  87.8832 0047936 282.7400  76.8367 15.17366449661143
CZ-4B R/B               
1 29507U 06046C   18194.06196105  .00000554  00000-0  48147-4 0  9992
2 29507  97.7890 206.8697 0047677  10.2825 349.9362 15.00356987639640
CZ-2C R/B               
1 31114U 07010B   18193.34155564 -.00000010  00000-0  14006-4 0  9990
2 31114  98.3585  79.8140 0060067 161.3107 199.0295 14.19274853582865
COSMO-SKYMED 1          
1 31598U 07023A   18194.46498540 -.00000333  00000-0 -35260-4 0  9992
2 31598  97.8895  17.6714 0001597  92.4909 267.6524 14.82150853600404
GENESIS 2               
1 31789U 07028A   18194.28843767  .00000371  00000-0  29194-4 0  9993
2 31789  64.5046 126.9495 0019578 319.8398  40.1276 15.16597311608207
COSMOS 2428             
1 31792U 07029A   18194.35229068  .00000155  00000-0  10962-3 0  9990
2 31792  70.9674 311.7066 0005371  37.3189 322.8304 14.12549532569309
SL-16 R/B               
1 31793U 07029B   18194.46285633  .00000044  00000-0  47946-4 0  9993
2 31793  70.9754 287.2689 0002492 265.7270 149.5689 14.14397007570049
KORONAS-FOTON           
1 33504U 09003A   18194.10149888  .00000553  00000-0  27640-4 0  9995
2 33504  82.4413 204.4052 0018848 194.0023 166.0689 15.15195048520668
H-2A R/B                
1 38341U 12025E   18194.32666501  .00000079  00000-0  16813-4 0  9990
2 38341  98.4229 297.7806 0055237 341.0894  18.8266 14.83770266332884
CUSAT 2 & FALCON 9 R/B  
1 39271U 13055G   18194.34539935  .00007247  00000-0  17904-3 0  9994
2 39271  80.9692 301.7964 0614955 120.8770 245.4394 14.41864199248904
ALOS-2                  
1 39766U 14029A   18194.50628105  .00000114  00000-0  22106-4 0  9998
2 39766  97.9217 291.2144 0001461  81.2618 278.8762 14.79471855223467
SL-27 R/B               
1 40354U 14084B   18193.79817621  .00000600  00000-0  16466-4 0  9999
2 40354  74.7383  46.7664 0039960 232.9581 126.7973 15.39106785199537
ASTRO-H (HITOMI)        
1 41337U 16012A   18194.15754188  .00000209  00000-0  10022-4 0  9990
2 41337  31.0046 160.9622 0012478 302.0209  57.9214 14.98480976131614
TIANGONG-2              
1 41765U 16057A   18194.45259964  .00002462  00000-0  35442-4 0  9995
2 41765  42.7830 184.1448 0005805  81.8443  54.4956 15.59024235104122
SHENZHOU-11 MODULE      
1 41868U 16061G   18193.80840742  .00006325  00000-0  48875-4 0  9998
2 41868  42.7928 156.6414 0001716 251.5067 186.1795 15.72652944 94318
